{"type": "FeatureCollection", "features": [{"type": "Feature", "geometry": {"type": "Polygon", "coordinates": [[[-41.873304988188416, -22.456211822155275], [-41.87403137481876, -22.455977389275095], [-41.87416315031482, -22.455306850699728], [-41.874889535653736, -22.455072411545792], [-41.875021310070586, -22.454401865391493], [-41.874426700480356, -22.453965757974235], [-41.87455847514981, -22.453295203824375], [-41.873963866931625, -22.452859089300155], [-41.874095641853685, -22.452188527155112], [-41.874822023662134, -22.451954079951133], [-41.87495379750499, -22.451283510228006], [-41.8743591908712, -22.450847387292022], [-41.874490964966675, -22.450176809574252], [-41.8752173443641, -22.449942355209398], [-41.87534911738035, -22.44927176991419], [-41.874754512331, -22.44883563856698], [-41.87488628559988, -22.44816504527773], [-41.87429168192249, -22.447728906824864], [-41.87442345544397, -22.447058305541912], [-41.87514983131102, -22.446823843128676], [-41.875281603753294, -22.44615323426914], [-41.874687001660334, -22.445717087406038], [-41.87481877435523, -22.445046470553383], [-41.87554514781123, -22.44481200098074], [-41.875676919426894, -22.444141376552125], [-41.87508231891841, -22.443705221279313], [-41.875214090786706, -22.44303458885817], [-41.874619491650115, -22.442598426481], [-41.873893120432825, -22.442832897829845], [-41.87329852245598, -22.442396729653485], [-41.8725721510671, -22.44263119561979], [-41.871977554250634, -22.442195021644498], [-41.87125118269092, -22.44242948222825], [-41.87065658703547, -22.441993302454282], [-41.86993021530569, -22.44222775765547], [-41.869335620811896, -22.441791572083105], [-41.86860924891284, -22.442026021901725], [-41.86801465558131, -22.44158983053122], [-41.86728828351375, -22.441824274967264], [-41.86669369134513, -22.441388077798862], [-41.865967319109835, -22.441622516852334], [-41.86537272810474, -22.44118631388633], [-41.864646355702476, -22.441420747557206], [-41.864514573184046, -22.442091383304465], [-41.863788199494024, -22.44232581070294], [-41.863656415897104, -22.44299643887321], [-41.86293004091964, -22.443230859998902], [-41.8627982562443, -22.443901480591784], [-41.8620718799797, -22.4441358954443], [-41.861940094225986, -22.44480650845942], [-41.86121371667459, -22.445040917038384], [-41.861081929842534, -22.445711522475342], [-41.860355551004666, -22.445945924780357], [-41.86022376309435, -22.446616522638756], [-41.85949738297032, -22.446850918669444], [-41.85936559398179, -22.447521508948892], [-41.858639212571916, -22.447755898704873], [-41.858507422505234, -22.448426481404983], [-41.859102015178536, -22.448862673935434], [-41.85897022536381, -22.449533248642247], [-41.8595648194117, -22.449969434070063], [-41.86029120306661, -22.449735046095565], [-41.86088579828112, -22.450171225724958], [-41.86075401004863, -22.450841792024214], [-41.86134860663743, -22.451277964550254], [-41.86121681865698, -22.45194852285542], [-41.86181141662, -22.45238468827774], [-41.861679628891636, -22.453055238588465], [-41.862274228228785, -22.453491396906642], [-41.86214244075251, -22.454161939222583], [-41.86273704146374, -22.454598090436253], [-41.862605254239575, -22.45526862475706], [-41.86187886497367, -22.455503008278622], [-41.86174707667111, -22.45617353501845], [-41.862341678964945, -22.456609677822268], [-41.863068069352785, -22.45637529519117], [-41.863662672811934, -22.456811432194627], [-41.864389063034146, -22.456577044177727], [-41.864983667658, -22.457013175380574], [-41.865710057713805, -22.45677878197788], [-41.866304663501715, -22.457214907379853], [-41.867031053390356, -22.456980508591386], [-41.8676256603417, -22.457416628192213], [-41.8683520500624, -22.45718222401797], [-41.86894665817653, -22.45761833781741], [-41.869673047728526, -22.457383928257393], [-41.87026765700484, -22.457820036255164], [-41.87099404638733, -22.457585621309384], [-41.87158865682518, -22.45802172350524], [-41.87231504603742, -22.45778730317371], [-41.87244682369175, -22.45711677975737], [-41.87317321161319, -22.45688235315133], [-41.873304988188416, -22.456211822155275]]]}, "properties": {"cluster_id": 1, "bairro": "Aphaville (Costa do Sol)", "score_mean": 82.73, "score_max": 99.79, "n_cells": 148, "radius_m": 964.0, "principais_sinais": "proximidade a âncoras + educação + saúde"}}, {"type": "Feature", "geometry": {"type": "Polygon", "coordinates": [[[-41.850115824396596, -22.439200547490366], [-41.85084219858446, -22.438966173028415], [-41.850973994654396, -22.43829552515765], [-41.851700367559694, -22.438061144421287], [-41.85183216255201, -22.43739048897257], [-41.852558534174406, -22.437156101962188], [-41.852690328089054, -22.436485438935925], [-41.853416698428234, -22.4362510456519], [-41.85354849126515, -22.435580375048474], [-41.85295391509234, -22.435144097316844], [-41.852227545877, -22.435378491492322], [-41.85163297087426, -22.43494220796674], [-41.85176476529227, -22.434271528962093], [-41.85117019166526, -22.433835238339253], [-41.85130198633491, -22.433164551345925], [-41.85202835330229, -22.432930155387382], [-41.85262292672401, -22.433366447313755], [-41.85334929353224, -22.433132045973835], [-41.85348108579487, -22.4324613518162], [-41.8528865125787, -22.432025058586305], [-41.85301830509304, -22.431354356440465], [-41.85242373325237, -22.430918056113867], [-41.8525555260184, -22.43024734598017], [-41.8532818892957, -22.430012936585232], [-41.85341368098405, -22.429342218876105], [-41.85281911072449, -22.428905910149794], [-41.852950902664524, -22.42823518445339], [-41.85235633378048, -22.427798868631214], [-41.852488125972215, -22.427128134947885], [-41.85189355846373, -22.426691812030235], [-41.852025350907134, -22.426021070360317], [-41.851430784774294, -22.425584740347595], [-41.850704425992916, -22.425819153307998], [-41.850109861030845, -22.425382817503692], [-41.84938350209144, -22.425617225084206], [-41.84878893830077, -22.425180883488576], [-41.84806257920411, -22.425415285689184], [-41.847468016585466, -22.424978938302505], [-41.84674165733232, -22.42521333512319], [-41.846147095886344, -22.424776981945726], [-41.84542073647749, -22.425011373386496], [-41.8448261762048, -22.424575014418497], [-41.844099816641005, -22.424809400479358], [-41.84350525754225, -22.424373035721086], [-41.842778897824275, -22.424607416402], [-41.842184339900065, -22.42417104585374], [-41.84145798002871, -22.424405421154713], [-41.84132617695558, -22.425076166111026], [-41.84059981580531, -22.425310535138937], [-41.8404680116553, -22.425981272519238], [-41.83974164922643, -22.426215635273714], [-41.839609843999575, -22.42688636507763], [-41.83888348029245, -22.427120721558257], [-41.83875167398881, -22.427791443785406], [-41.83802530900374, -22.428025793991814], [-41.83789350162336, -22.428696508641792], [-41.83716713536067, -22.428930852573593], [-41.837035326903624, -22.429601559646], [-41.83630895936362, -22.42983589730283], [-41.83617714982994, -22.430506596797276], [-41.835450781012966, -22.430740928178725], [-41.835318970402724, -22.431411620094828], [-41.83591352993703, -22.431847980220756], [-41.83578171957778, -22.432518664149523], [-41.836376280490406, -22.43295501718209], [-41.836244470382184, -22.43362569312318], [-41.836839032673076, -22.434062039061992], [-41.83670722281588, -22.434732707015062], [-41.83730178648496, -22.435169045859713], [-41.837169976878826, -22.435839705824414], [-41.83776454192601, -22.436276037574544], [-41.837632732570945, -22.43694668955052], [-41.83822729899617, -22.437383014205718], [-41.83895367457545, -22.437148688188064], [-41.83954824217744, -22.43758500705117], [-41.83941643440141, -22.438255650628673], [-41.84001100338117, -22.438691962396142], [-41.84073737993538, -22.43845763188935], [-41.84133195009108, -22.43889393786414], [-41.841200143894326, -22.439564573042322], [-41.84179471542748, -22.44000087192076], [-41.84252109295524, -22.439766536924388], [-41.843115665663476, -22.44020283000956], [-41.84384204303763, -22.439968489630065], [-41.84443661692031, -22.440404776921703], [-41.8451629941401, -22.440170431159085], [-41.84575756919659, -22.440606712656937], [-41.846483946261245, -22.440372361511198], [-41.847078522490925, -22.440808637215003], [-41.84780489939966, -22.440574280686143], [-41.8483994768019, -22.441010550595628], [-41.84912585355394, -22.440776188683664], [-41.84925765177897, -22.440105555969954], [-41.849984027249086, -22.439871187782806], [-41.850115824396596, -22.439200547490366]]]}, "properties": {"cluster_id": 2, "bairro": "Novo Horizonte", "score_mean": 72.97, "score_max": 81.15, "n_cells": 158, "radius_m": 951.0, "principais_sinais": "densidade residencial + conectividade viária + proximidade a âncoras"}}, {"type": "Feature", "geometry": {"type": "Polygon", "coordinates": [[[-41.87025805715505, -22.43709696856994], [-41.87098442294418, -22.436862498161307], [-41.87111619765929, -22.436191817376145], [-41.87184256215822, -22.435957340697637], [-41.87197433579438, -22.435286652338387], [-41.87270069900279, -22.435052169390378], [-41.87283247155996, -22.434381473457456], [-41.87355883347753, -22.43414698424033], [-41.87369060495563, -22.433476280734116], [-41.87309601584778, -22.433040066028735], [-41.873227787578415, -22.43236935453321], [-41.87263319984273, -22.431933132726737], [-41.87276497182591, -22.43126241324226], [-41.87217038546246, -22.430826184335086], [-41.87230215769814, -22.430155456861996], [-41.87170757270702, -22.429719220854512], [-41.87183934519517, -22.429048485393164], [-41.871244761576435, -22.428612242285755], [-41.87051840525821, -22.4288467359438], [-41.869923822800786, -22.428410487040864], [-41.86919746631295, -22.42864497531912], [-41.86860288501747, -22.428208720620912], [-41.86787652836078, -22.42844320351936], [-41.86728194822787, -22.428006943026155], [-41.86655559140311, -22.4282414205448], [-41.86596101243341, -22.42780515425685], [-41.86523465544135, -22.428039626395684], [-41.864640077635485, -22.427603354313256], [-41.863913720476894, -22.427837821072274], [-41.8633191438355, -22.427401543195625], [-41.86259278651115, -22.427636004574808], [-41.861998211034845, -22.427199720904213], [-41.86127185354553, -22.42743417690356], [-41.86067727923494, -22.426997887439278], [-41.8599509215814, -22.427232338058783], [-41.85935634843718, -22.426796042801076], [-41.858629990620216, -22.42703048804073], [-41.85803541864298, -22.426594186989867], [-41.85730906066334, -22.42682862684966], [-41.857177273538205, -22.4274993668699], [-41.85645091427364, -22.427733800459244], [-41.85631912607055, -22.428404532905393], [-41.856913698461845, -22.428840831349298], [-41.85764005884935, -22.42860639865051], [-41.85823463240845, -22.429042691301134], [-41.85896099263352, -22.42880825322206], [-41.859555567359806, -22.429244540079146], [-41.8594237820685, -22.42991526371166], [-41.86001835816919, -22.43035154347126], [-41.85988657312987, -22.431022259115952], [-41.86048115060491, -22.43145853177769], [-41.86034936581759, -22.432129239434193], [-41.859623002225035, -22.432363674842524], [-41.85949121635954, -22.43303437492414], [-41.86008579541674, -22.433470639183813], [-41.85995400980323, -22.434141331276667], [-41.85922764380236, -22.43437575952339], [-41.85909585711069, -22.435046444040736], [-41.85969043775001, -22.435482699897808], [-41.859558651310316, -22.436153376425807], [-41.8588322829012, -22.436387797510232], [-41.85870049538335, -22.43705846646212], [-41.859295077604735, -22.437494713916035], [-41.85916329033886, -22.43816537487798], [-41.85843691952153, -22.43839978879945], [-41.85830513117753, -22.43907044218465], [-41.858899714980936, -22.439506681234896], [-41.85962608692084, -22.439272268203954], [-41.86022067189114, -22.439708501458224], [-41.86094704366744, -22.43947408304488], [-41.86154162980401, -22.439910310502903], [-41.862268001415934, -22.43967588670715], [-41.86286258871815, -22.44011210836867], [-41.86358896016493, -22.439877679190534], [-41.864183548632155, -22.44031389505528], [-41.86490991991302, -22.440079460494758], [-41.865504509544635, -22.440515670562466], [-41.866230880658804, -22.440281230619572], [-41.86682547145417, -22.440717434889994], [-41.86755184240087, -22.440482989564718], [-41.867683621431226, -22.439812339079804], [-41.868409991089024, -22.439577887483118], [-41.86854176904065, -22.438907229422544], [-41.86926813740921, -22.438672771554828], [-41.86939991428204, -22.438002105918997], [-41.87012628136105, -22.437767641780624], [-41.87025805715505, -22.43709696856994]]]}, "properties": {"cluster_id": 3, "bairro": "Novo Horizonte", "score_mean": 75.77, "score_max": 93.3, "n_cells": 111, "radius_m": 1030.0, "principais_sinais": "proximidade a âncoras + densidade residencial + conectividade viária"}}, {"type": "Feature", "geometry": {"type": "Polygon", "coordinates": [[[-41.859809877123176, -22.40717302618519], [-41.85994165731721, -22.40650213020458], [-41.860667991379394, -22.40626762414744], [-41.86079977049532, -22.405596720599235], [-41.86152610327134, -22.405362208277328], [-41.86165788130911, -22.404691297161953], [-41.86238421279863, -22.404456778575653], [-41.862515989758194, -22.40378585989348], [-41.86324231996092, -22.40355133504318], [-41.8633740958422, -22.402880408794616], [-41.86277954285112, -22.40244400698266], [-41.8629113189845, -22.401773072754285], [-41.86231676736717, -22.40133666385154], [-41.86159043940794, -22.4015711904797], [-41.86099588895609, -22.40113477578897], [-41.86112766667177, -22.400463833167695], [-41.86053311759395, -22.400027411386883], [-41.860664895561634, -22.399356460786613], [-41.861391221276996, -22.399121932380428], [-41.86152299816655, -22.398450974214708], [-41.860928450670876, -22.398014544041917], [-41.86106022781245, -22.397343577897765], [-41.86046568169081, -22.396907140635747], [-41.86059745908437, -22.396236166513525], [-41.86000291433684, -22.39579972216267], [-41.86013469198238, -22.395128740062717], [-41.85954014860902, -22.39469228862341], [-41.85881382738248, -22.39492682058617], [-41.858219285175906, -22.394490363360823], [-41.857492963786605, -22.394724889950343], [-41.85689842274744, -22.3942884269392], [-41.85617210119616, -22.394522948155466], [-41.85557756132503, -22.3940864793588], [-41.854851239612536, -22.394320995201813], [-41.8542567009101, -22.393884520619896], [-41.85353037903716, -22.394119031089637], [-41.85293584150401, -22.39368255072273], [-41.852209519471415, -22.393917055819195], [-41.851614983108206, -22.393480569667556], [-41.8508886609167, -22.393715069390744], [-41.85029412572407, -22.393278577454634], [-41.84956780337445, -22.393513071804538], [-41.84943601509328, -22.394184057199837], [-41.848709691461806, -22.394418545285554], [-41.8485779021033, -22.395089523114837], [-41.84785157719029, -22.395324004935976], [-41.84771978675452, -22.395994975198857], [-41.84831432256051, -22.396431463229955], [-41.84818253237622, -22.397102425515534], [-41.848777069558345, -22.397538906460255], [-41.84864527962555, -22.39820986076817], [-41.849239818183726, -22.39864633462611], [-41.84910802850245, -22.399317280956033], [-41.84970256843661, -22.399753747726802], [-41.84957077900686, -22.40042468607838], [-41.85016532031695, -22.40086114576158], [-41.85003353113876, -22.401532076134476], [-41.85062807382468, -22.40196852872971], [-41.85049628489807, -22.402639451123573], [-41.85109082895976, -22.40307589663047], [-41.85095904028474, -22.403746811044936], [-41.851553585722144, -22.40418324946308], [-41.85142179729874, -22.40485415589783], [-41.85201634411176, -22.405290587226844], [-41.85188455593999, -22.405961485681495], [-41.85247910412858, -22.406397909921], [-41.85320544028348, -22.406163437008107], [-41.853799989641914, -22.406599855460044], [-41.853668203051114, -22.407270745522492], [-41.854262753784816, -22.4077071568842], [-41.8549890909033, -22.407472679485842], [-41.85558364280602, -22.407909085059412], [-41.85630997976363, -22.40767460228502], [-41.85690453283471, -22.408111002070182], [-41.85677274915482, -22.40878188332716], [-41.85736730360067, -22.409218276021047], [-41.85809364151942, -22.40898378876054], [-41.85822542386951, -22.408312907916265], [-41.85895176050306, -22.408078414389813], [-41.85908354177514, -22.407407525977177], [-41.859809877123176, -22.40717302618519]], [[-41.853003240209816, -22.396802936650307], [-41.852276914646694, -22.39703743370221], [-41.85168237532718, -22.396600963025826], [-41.85181416177618, -22.395929993995733], [-41.85254048621552, -22.395695496053445], [-41.85313502532961, -22.39613196803168], [-41.853003240209816, -22.396802936650307]]]}, "properties": {"cluster_id": 4, "bairro": "Cancela Preta", "score_mean": 68.56, "score_max": 87.63, "n_cells": 109, "radius_m": 922.0, "principais_sinais": "densidade residencial + proximidade a âncoras + conectividade viária"}}, {"type": "Feature", "geometry": {"type": "Polygon", "coordinates": [[[-41.79330401785429, -22.395956977459157], [-41.793435864622296, -22.39528605318385], [-41.79416220477345, -22.395051815014057], [-41.79429405046779, -22.394380883163496], [-41.79369955733391, -22.39394418908316], [-41.793831403277515, -22.393273249258048], [-41.79323691152874, -22.39283654810327], [-41.79336875772159, -22.39216560030396], [-41.79409509434033, -22.391931354058965], [-41.79422693945952, -22.391260398685265], [-41.79363244928291, -22.390823689157052], [-41.793764294651375, -22.390152725809735], [-41.79449062887352, -22.389918472390235], [-41.7946224731683, -22.38924750146915], [-41.79402798456389, -22.38881078356803], [-41.79415982910796, -22.38813980467392], [-41.79488616093346, -22.387905544080574], [-41.795018004403836, -22.387234557613336], [-41.79442351737168, -22.38679783133985], [-41.79455536109135, -22.386126836900157], [-41.79396087544416, -22.385690103554012], [-41.79323454589017, -22.385924365946764], [-41.792640061441055, -22.38548762682745], [-41.79191373176267, -22.385721883846422], [-41.791319248512245, -22.385285138954224], [-41.79059291871022, -22.38551939059942], [-41.79046107102231, -22.38619038623665], [-41.78973473996081, -22.386424631607714], [-41.78914025772387, -22.385987882241857], [-41.788413926540024, -22.386222122238916], [-41.788282076456326, -22.38689311070126], [-41.787555744013815, -22.387127344423586], [-41.7869612627921, -22.38669059058424], [-41.7862349302285, -22.386924818932336], [-41.78610307774941, -22.38759580021882], [-41.78537674392799, -22.38783002229156], [-41.78524489037578, -22.388500996003582], [-41.78451855529685, -22.388735211800597], [-41.7843867006716, -22.389406177937754], [-41.78366036433547, -22.38964038745866], [-41.78352850863721, -22.39031134602057], [-41.78280217104422, -22.390545549264974], [-41.78267031427301, -22.391216500251232], [-41.78326479641655, -22.391653247595695], [-41.783132939894166, -22.392324190608658], [-41.78372742342455, -22.392760930881277], [-41.78445376329338, -22.392526729439965], [-41.78504824802639, -22.392963463939477], [-41.784916393074745, -22.39363439858114], [-41.785510879194305, -22.39407112600809], [-41.78623722008103, -22.39383692009253], [-41.78683170740239, -22.394273641745784], [-41.78669985402175, -22.39494456801531], [-41.78729434272937, -22.395381282595284], [-41.7871624895977, -22.396052200890228], [-41.7877569796915, -22.396488908396535], [-41.788483322731786, -22.396254698907246], [-41.789077814026314, -22.396691400638936], [-41.789804156944605, -22.39645718577351], [-41.79039864943925, -22.396893881730332], [-41.791124992234785, -22.396659661488766], [-41.7917194859289, -22.397096351670452], [-41.79244582860092, -22.39686212605276], [-41.79257767644254, -22.396191209353088], [-41.79330401785429, -22.395956977459157]]]}, "properties": {"cluster_id": 5, "bairro": "Aroeira", "score_mean": 81.79, "score_max": 93.05, "n_cells": 68, "radius_m": 683.0, "principais_sinais": "proximidade a âncoras + academia + conectividade viária"}}, {"type": "Feature", "geometry": {"type": "MultiPolygon", "coordinates": [[[[-41.80611692362078, -22.399993689669838], [-41.80624875797757, -22.399322784953785], [-41.80565425113086, -22.398886158316106], [-41.80578608573741, -22.398215245623557], [-41.806512425866416, -22.397980959970855], [-41.80710693252212, -22.398417587908746], [-41.80783327251861, -22.398183296880198], [-41.80842778036579, -22.398619919039827], [-41.80829594840797, -22.399290830927708], [-41.80889045763788, -22.399727446008495], [-41.8096167986338, -22.399493150501694], [-41.809748629267055, -22.39882223901655], [-41.809154120228996, -22.39838562263544], [-41.809285951112145, -22.39771470317381], [-41.808691443456674, -22.397278079713914], [-41.808823274589706, -22.396607152276154], [-41.808228768316866, -22.396170521737872], [-41.80836059969976, -22.39549958632431], [-41.807766094809644, -22.39506294870802], [-41.80789792644238, -22.394392005319013], [-41.80730342293504, -22.393955360625128], [-41.80657708760365, -22.394189660620327], [-41.80598258528804, -22.393753010149208], [-41.805256249824446, -22.393987304769404], [-41.8046617487012, -22.393550648521323], [-41.80393541310617, -22.393784937766522], [-41.80380357750077, -22.394455882361584], [-41.803077240641166, -22.39469016533338], [-41.80248274052089, -22.394253504608482], [-41.801756403531115, -22.394487782205058], [-41.80162456552759, -22.39515871962791], [-41.80089822727407, -22.395392990950477], [-41.800766388196365, -22.39606392079928], [-41.800040048679435, -22.396298185847446], [-41.79990820852762, -22.39696910812179], [-41.799181867747585, -22.39720336689518], [-41.79905002652172, -22.39787428159468], [-41.79964452739944, -22.398310937119955], [-41.799512686423064, -22.398981843843515], [-41.80010718868493, -22.39941849229183], [-41.80083353173412, -22.39918423531653], [-41.801428035190845, -22.399620877987516], [-41.801296195787664, -22.400291776333724], [-41.80056985160403, -22.400526032410042], [-41.800438011126694, -22.40119692318068], [-41.80103251615668, -22.40163355747386], [-41.80090067592889, -22.402304440267525], [-41.801495182342826, -22.402741067482555], [-41.802221528795066, -22.402506813204063], [-41.802353367699055, -22.40183593081169], [-41.80307971288728, -22.401601670257595], [-41.80321155071701, -22.40093078028958], [-41.80393789464091, -22.400696513460254], [-41.804532401868876, -22.40113313749748], [-41.804400565363174, -22.40180402706377], [-41.8049950739745, -22.402240644022257], [-41.80572141890093, -22.40200637271473], [-41.80631592870479, -22.402442983894467], [-41.80704227349915, -22.40220870721025], [-41.80717410735637, -22.401537818448237], [-41.80657959774356, -22.401101205968132], [-41.80671143185057, -22.400430309228923], [-41.80611692362078, -22.399993689669838]], [[-41.80360706255682, -22.398918079281582], [-41.80347522555178, -22.399588984801447], [-41.80274888276176, -22.39982325252933], [-41.80215437811082, -22.399386615635926], [-41.802286216439796, -22.398715709714562], [-41.80301255809582, -22.39848144108806], [-41.80360706255682, -22.398918079281582]]], [[[-41.80790045088491, -22.401303535489422], [-41.808494961689185, -22.40174014219057], [-41.80922130508439, -22.401505853855284], [-41.80935313654246, -22.40083495792119], [-41.80875862592991, -22.40039834991965], [-41.80803228366752, -22.400632639152644], [-41.80790045088491, -22.401303535489422]]]]}, "properties": {"cluster_id": 6, "bairro": "Nova Holanda", "score_mean": 98.6, "score_max": 100.0, "n_cells": 41, "radius_m": 563.0, "principais_sinais": "proximidade a âncoras + densidade residencial + educação"}}, {"type": "Feature", "geometry": {"type": "Polygon", "coordinates": [[[-41.80849749262544, -22.40865110104117], [-41.808629326308086, -22.40798025974666], [-41.808034809589536, -22.40754368396808], [-41.808166643522036, -22.406872834694408], [-41.80889299284854, -22.406638561602108], [-41.80902482570636, -22.405967704752342], [-41.808430310562244, -22.40553112059211], [-41.808562143669945, -22.40486025576375], [-41.807967629908546, -22.40442366452298], [-41.8080994632661, -22.40375279171639], [-41.80882580906053, -22.403518510553297], [-41.808957641343426, -22.402847630171472], [-41.808363129156426, -22.40241103055004], [-41.808494961689185, -22.40174014219057], [-41.80790045088491, -22.401303535489422], [-41.80717410735637, -22.401537818448237], [-41.80704227349915, -22.40220870721025], [-41.80631592870479, -22.402442983894467], [-41.80572141890093, -22.40200637271473], [-41.8049950739745, -22.402240644022257], [-41.80486323771853, -22.402911525611227], [-41.8041368915271, -22.403145790643567], [-41.803542382725404, -22.402709174985386], [-41.802816036403186, -22.402943434640804], [-41.802221528795066, -22.402506813204063], [-41.801495182342826, -22.402741067482555], [-41.8013633423646, -22.403411942298902], [-41.80063699464869, -22.403646190301398], [-41.800505153596305, -22.404317057541324], [-41.79977880461703, -22.404551299267435], [-41.79964696249051, -22.40522215893055], [-41.8002414706669, -22.405658776466485], [-41.8001096287899, -22.40632962815146], [-41.800704138350376, -22.40676623860832], [-41.80057229672292, -22.407437082314804], [-41.7998459442113, -22.40767131596551], [-41.79971410150971, -22.408342152094313], [-41.80030861264338, -22.408778754171287], [-41.80017677019131, -22.409449582321017], [-41.80077128270908, -22.409886177318075], [-41.801497637489646, -22.409651945465843], [-41.80162947861797, -22.40898111771739], [-41.802355832134786, -22.408746879587728], [-41.80295034565739, -22.409183470105567], [-41.80367669904412, -22.408949226597706], [-41.804271213760245, -22.409385811335575], [-41.8049975670161, -22.40915156244951], [-41.80559208292513, -22.40958814140716], [-41.80631843604934, -22.409353887142892], [-41.806450272131045, -22.408683053022603], [-41.807176623989676, -22.408448792481934], [-41.807771140899725, -22.408885366959808], [-41.80849749262544, -22.40865110104117]]]}, "properties": {"cluster_id": 7, "bairro": "Bosque Azul", "score_mean": 98.88, "score_max": 99.94, "n_cells": 40, "radius_m": 546.0, "principais_sinais": "proximidade a âncoras + academia + transporte"}}, {"type": "Feature", "geometry": {"type": "Polygon", "coordinates": [[[-41.8742819515054, -22.427003475838838], [-41.87441372075648, -22.426332717662785], [-41.87514007303106, -22.426098199823084], [-41.87527184120301, -22.425427434076248], [-41.87467725843212, -22.424991185752653], [-41.87480902685668, -22.42432041201884], [-41.87421444545767, -22.42388415659599], [-41.8743462141348, -22.42321337487554], [-41.873751634107755, -22.422777112353813], [-41.873883403037446, -22.42210632264709], [-41.873288824382406, -22.421670053026883], [-41.87342059356464, -22.420999255334223], [-41.8728260162817, -22.420562978615934], [-41.87295778571645, -22.41989217293768], [-41.87236320980568, -22.419455889121696], [-41.872494979492934, -22.418785075458196], [-41.871900404954395, -22.418348784544907], [-41.87117406051706, -22.418583308598766], [-41.87057948713949, -22.41814701189212], [-41.869853142532165, -22.418381530568322], [-41.86925857031618, -22.41794522806858], [-41.86853222553963, -22.418179741367123], [-41.86793765448587, -22.417743433074545], [-41.86721130954088, -22.417977940995417], [-41.867079534528976, -22.41864875632032], [-41.86635318829534, -22.418883257974795], [-41.86622141220488, -22.4195540657297], [-41.86549506468291, -22.419788561117397], [-41.86536328751393, -22.420459361301898], [-41.86463693870395, -22.420693850422435], [-41.86404236818433, -22.42025754024749], [-41.8633160192082, -22.4204920239897], [-41.8631842396302, -22.42116281701761], [-41.86245788936689, -22.42139729449206], [-41.862326108710576, -22.422068079948623], [-41.86292067964799, -22.42250438751673], [-41.863647031033, -22.422269910931664], [-41.86424160313533, -22.422706212706906], [-41.86410982406161, -22.4233769897637], [-41.86470439753757, -22.423813284442264], [-41.864572618716025, -22.424484053512973], [-41.86384626508792, -22.424718528319413], [-41.86371448518794, -22.42538928981807], [-41.86298813027245, -22.425623758355865], [-41.862856349294084, -22.426294512282077], [-41.862129993091514, -22.426528974550838], [-41.86153541898919, -22.42609268378297], [-41.86166720129793, -22.425421929442805], [-41.86107262856966, -22.424985631578068], [-41.86120441113044, -22.42431486925145], [-41.8619307650892, -22.424080405203405], [-41.86206254657172, -22.423409635304427], [-41.8614679754258, -22.422973329039756], [-41.860741622589096, -22.42320779397752], [-41.86014705260914, -22.422771481920183], [-41.85942069960853, -22.42300594147895], [-41.85928891546559, -22.423676712205104], [-41.858562561179276, -22.42391116549475], [-41.858430775958254, -22.424581928648223], [-41.85770442038655, -22.42481637566835], [-41.85757263408751, -22.42548713124874], [-41.85684627723072, -22.425721571998967], [-41.85671448985372, -22.426392320005892], [-41.85730906066334, -22.42682862684966], [-41.85803541864298, -22.426594186989867], [-41.858629990620216, -22.42703048804073], [-41.85935634843718, -22.426796042801076], [-41.8599509215814, -22.427232338058783], [-41.86067727923494, -22.426997887439278], [-41.86127185354553, -22.42743417690356], [-41.861998211034845, -22.427199720904213], [-41.86259278651115, -22.427636004574808], [-41.8633191438355, -22.427401543195625], [-41.863913720476894, -22.427837821072274], [-41.864640077635485, -22.427603354313256], [-41.86523465544135, -22.428039626395684], [-41.86596101243341, -22.42780515425685], [-41.86655559140311, -22.4282414205448], [-41.86728194822787, -22.428006943026155], [-41.86787652836078, -22.42844320351936], [-41.86860288501747, -22.428208720620912], [-41.86919746631295, -22.42864497531912], [-41.869923822800786, -22.428410487040864], [-41.87051840525821, -22.4288467359438], [-41.871244761576435, -22.428612242285755], [-41.87183934519517, -22.429048485393164], [-41.87256570134301, -22.428813986355326], [-41.87269747275219, -22.428143243322015], [-41.87342382760925, -22.427908738016516], [-41.873555597939415, -22.42723798741164], [-41.8742819515054, -22.427003475838838]]]}, "properties": {"cluster_id": 8, "bairro": "Cancela Preta", "score_mean": 73.26, "score_max": 92.84, "n_cells": 83, "radius_m": 1080.0, "principais_sinais": "proximidade a âncoras + educação + conectividade viária"}}, {"type": "Feature", "geometry": {"type": "Polygon", "coordinates": [[[-41.815494725263065, -22.4007389034301], [-41.816221065579576, -22.400504581043144], [-41.816352889587826, -22.39983367157576], [-41.81575837460488, -22.399397084091213], [-41.815890198863315, -22.39872616664678], [-41.81661653677933, -22.398491837091118], [-41.816748359962595, -22.397820912074128], [-41.81615384655518, -22.397384316208623], [-41.81628566998862, -22.39671338321517], [-41.81569115796262, -22.396276780269723], [-41.815822981646235, -22.395605839300153], [-41.816549316030525, -22.395371501680163], [-41.81668113863897, -22.39470055313889], [-41.816086628188486, -22.3942639418135], [-41.81621845104713, -22.393592985296685], [-41.81562394197804, -22.39315636689221], [-41.81489760985641, -22.39339070630489], [-41.81430310197507, -22.392954082121985], [-41.81357676971636, -22.393188416160157], [-41.81298226302342, -22.39275178619907], [-41.81311408878246, -22.392080820899654], [-41.81251958347144, -22.39164418386052], [-41.811793252208446, -22.391878513421002], [-41.81119874808665, -22.3914418706043], [-41.810472416688384, -22.391676194790445], [-41.81034058827967, -22.392347160896197], [-41.80961425561437, -22.392581478810744], [-41.80948242613093, -22.393252437344646], [-41.80875609219891, -22.39348674898719], [-41.808624261640794, -22.394157699948845], [-41.80789792644238, -22.394392005319013], [-41.807766094809644, -22.39506294870802], [-41.80836059969976, -22.39549958632431], [-41.808228768316866, -22.396170521737872], [-41.808823274589706, -22.396607152276154], [-41.808691443456674, -22.397278079713914], [-41.809285951112145, -22.39771470317381], [-41.809154120228996, -22.39838562263544], [-41.809748629267055, -22.39882223901655], [-41.8096167986338, -22.399493150501694], [-41.80889045763788, -22.399727446008495], [-41.80875862592991, -22.40039834991965], [-41.80935313654246, -22.40083495792119], [-41.81007947867102, -22.400600663311945], [-41.81067399047401, -22.401037265534313], [-41.81140033246795, -22.400802965548806], [-41.81153216152652, -22.400132062443625], [-41.81225850225299, -22.399897756184746], [-41.81285301505295, -22.4003343539282], [-41.81357935564355, -22.400100042293293], [-41.81417386963227, -22.400536634257115], [-41.81404204322368, -22.40120753655524], [-41.81463655859419, -22.401644121438526], [-41.815362900179665, -22.40140980532429], [-41.815494725263065, -22.4007389034301]], [[-41.81410666062841, -22.397416370092436], [-41.81483299755054, -22.39718204501574], [-41.81542750977044, -22.3976186466607], [-41.81529568526186, -22.39828957208183], [-41.81456934720818, -22.398523896261906], [-41.813974834794664, -22.398087295917428], [-41.81410666062841, -22.397416370092436]]]}, "properties": {"cluster_id": 9, "bairro": "São Marcos", "score_mean": 94.81, "score_max": 99.71, "n_cells": 43, "radius_m": 556.0, "principais_sinais": "proximidade a âncoras + educação + escritórios"}}, {"type": "Feature", "geometry": {"type": "Polygon", "coordinates": [[[-41.800040048679435, -22.396298185847446], [-41.800766388196365, -22.39606392079928], [-41.80089822727407, -22.395392990950477], [-41.80162456552759, -22.39515871962791], [-41.801756403531115, -22.394487782205058], [-41.80248274052089, -22.394253504608482], [-41.803077240641166, -22.39469016533338], [-41.80380357750077, -22.394455882361584], [-41.80393541310617, -22.393784937766522], [-41.803340913175916, -22.39334827574174], [-41.803472749030966, -22.392677323171938], [-41.80287825048422, -22.392240654070918], [-41.80301008658891, -22.39156969352669], [-41.802415589425756, -22.391133017349823], [-41.80254742578008, -22.390462048831527], [-41.80195293000056, -22.390025365579202], [-41.80122659767711, -22.390259652144874], [-41.80063210309187, -22.389822963117073], [-41.800763941019504, -22.389151986224054], [-41.80016944781821, -22.38871529012152], [-41.80030128599537, -22.388044305255246], [-41.799706794178086, -22.387607602078358], [-41.79983863260475, -22.386936609239175], [-41.799244142171545, -22.38649989898833], [-41.79937598084769, -22.385828898176594], [-41.79878149179865, -22.385392180852186], [-41.79805516388482, -22.385626465638886], [-41.79746067603154, -22.385189742540593], [-41.79673434799049, -22.385424021953757], [-41.796139861333614, -22.384987293081817], [-41.79541353316611, -22.385221567121445], [-41.795281690520156, -22.385892569133635], [-41.79455536109135, -22.386126836900157], [-41.79442351737168, -22.38679783133985], [-41.795018004403836, -22.387234557613336], [-41.79488616093346, -22.387905544080574], [-41.79415982910796, -22.38813980467392], [-41.79402798456389, -22.38881078356803], [-41.7946224731683, -22.38924750146915], [-41.79449062887352, -22.389918472390235], [-41.793764294651375, -22.390152725809735], [-41.79363244928291, -22.390823689157052], [-41.79422693945952, -22.391260398685265], [-41.79409509434033, -22.391931354058965], [-41.79468958590197, -22.392368056513213], [-41.794557741032044, -22.393039003912936], [-41.793831403277515, -22.393273249258048], [-41.79369955733391, -22.39394418908316], [-41.79429405046779, -22.394380883163496], [-41.79502038935802, -22.39414663871822], [-41.7956148836895, -22.394583327023334], [-41.79548303931821, -22.395254258474083], [-41.7960775350345, -22.395690939704036], [-41.79594569091254, -22.396361863179767], [-41.79654018801358, -22.396798537334185], [-41.79726652904862, -22.396564289312554], [-41.79786102734619, -22.397000957690828], [-41.798587368254104, -22.396766704293313], [-41.799181867747585, -22.39720336689518], [-41.79990820852762, -22.39696910812179], [-41.800040048679435, -22.396298185847446]], [[-41.79594329593126, -22.389449953902414], [-41.795348806129425, -22.389013241775437], [-41.79548064935049, -22.388342263281], [-41.79620698105027, -22.38810799731346], [-41.796801470664306, -22.38854471073981], [-41.79666962876639, -22.389215688834298], [-41.79594329593126, -22.389449953902414]], [[-41.79944554937477, -22.395861521945736], [-41.79871920972944, -22.396095781618246], [-41.798124711620275, -22.395659111940176], [-41.798256553345055, -22.394988181289857], [-41.79898289185557, -22.394753920718195], [-41.79957738977608, -22.39519059169604], [-41.79944554937477, -22.395861521945736]]]}, "properties": {"cluster_id": 10, "bairro": "Visconde de Araújo", "score_mean": 86.49, "score_max": 99.97, "n_cells": 54, "radius_m": 671.0, "principais_sinais": "proximidade a âncoras + conectividade viária + densidade residencial"}}]}