<?xml version="1.0" encoding="UTF-8"?>
<kml xmlns="http://www.opengis.net/kml/2.2">
  <Document>
    <name>Rota de campo — Dia 1</name>
    <Placemark>
      <name>Rota de campo — Dia 1 — rota</name>
      <LineString><tessellate>1</tessellate>
        <coordinates>-41.787807,-22.392019,0 -41.789722,-22.398671,0 -41.798432,-22.399330,0 -41.808556,-22.402872,0 -41.812074,-22.397002,0</coordinates>
      </LineString>
    </Placemark>
    <Placemark>
      <name>#1 — Aroeira (alta)</name>
      <description><![CDATA[
        Cluster: 10 | Super: 6<br/>
        Score médio: 79.7<br/>
        1 micro-cluster(s) unidos; 23 cells; score médio 80; proximidade a âncoras + comércio + diversidade de usos + conectividade viária.<br/><br/>
        <i>Caminhar o corredor inteiro; validar presença de comércio denso + fluxo; anotar hosts candidatos (padaria, farmácia, academia, mercado, salão).</i>
      ]]></description>
      <Point><coordinates>-41.787807,-22.392019,0</coordinates></Point>
    </Placemark>
    <Placemark>
      <name>#2 — Glória (média)</name>
      <description><![CDATA[
        Cluster: 2|13 | Super: 2<br/>
        Score médio: 90.6<br/>
        2 micro-cluster(s) unidos; 54 cells; score médio 91; proximidade a âncoras + diversidade de usos + comércio + alimentação.<br/><br/>
        <i>Caminhar o corredor inteiro; validar presença de comércio denso + fluxo; anotar hosts candidatos (padaria, farmácia, academia, mercado, salão).</i>
      ]]></description>
      <Point><coordinates>-41.789722,-22.398671,0</coordinates></Point>
    </Placemark>
    <Placemark>
      <name>#3 — Granja dos Cavaleiros (alta)</name>
      <description><![CDATA[
        Cluster: 1 | Super: 1<br/>
        Score médio: 94.5<br/>
        1 micro-cluster(s) unidos; 41 cells; score médio 95; proximidade a âncoras + diversidade de usos + alimentação + mercado/conveniência.<br/><br/>
        <i>Caminhar o corredor inteiro; validar presença de comércio denso + fluxo; anotar hosts candidatos (padaria, farmácia, academia, mercado, salão).</i>
      ]]></description>
      <Point><coordinates>-41.798432,-22.399330,0</coordinates></Point>
    </Placemark>
    <Placemark>
      <name>#4 — Nova Holanda (alta)</name>
      <description><![CDATA[
        Cluster: 5 | Super: 5<br/>
        Score médio: 83.6<br/>
        1 micro-cluster(s) unidos; 36 cells; score médio 84; proximidade a âncoras + diversidade de usos + transporte + mercado/conveniência.<br/><br/>
        <i>Caminhar o corredor inteiro; validar presença de comércio denso + fluxo; anotar hosts candidatos (padaria, farmácia, academia, mercado, salão).</i>
      ]]></description>
      <Point><coordinates>-41.808556,-22.402872,0</coordinates></Point>
    </Placemark>
    <Placemark>
      <name>#5 — Nova Holanda (alta)</name>
      <description><![CDATA[
        Cluster: 7 | Super: 7<br/>
        Score médio: 77.0<br/>
        1 micro-cluster(s) unidos; 37 cells; score médio 77; proximidade a âncoras + diversidade de usos + mercado/conveniência + escritórios.<br/><br/>
        <i>Caminhar o corredor inteiro; validar presença de comércio denso + fluxo; anotar hosts candidatos (padaria, farmácia, academia, mercado, salão).</i>
      ]]></description>
      <Point><coordinates>-41.812074,-22.397002,0</coordinates></Point>
    </Placemark>
  </Document>
</kml>