{"type": "FeatureCollection", "features": [{"type": "Feature", "geometry": {"type": "Polygon", "coordinates": [[[-41.80288566089072, -22.412974127242197], [-41.80387569749433, -22.41139827661333], [-41.80281850585296, -22.409854297452483], [-41.80380853777421, -22.408278391673193], [-41.805855756412846, -22.408246472764294], [-41.80684577872664, -22.40667051954958], [-41.80889299284854, -22.406638561602108], [-41.80988300554941, -22.405062560959312], [-41.80882580906053, -22.403518510553297], [-41.80981581707952, -22.401942454777192], [-41.80875862592991, -22.40039834991965], [-41.80671143185057, -22.400430309228923], [-41.80565425113086, -22.398886158316106], [-41.806644259398475, -22.397310039704234], [-41.805587084018, -22.395765834351927], [-41.80353990546533, -22.395797756003105], [-41.802549892273106, -22.397373882320867], [-41.800502709216374, -22.397405764946992], [-41.799512686423064, -22.398981843843515], [-41.79746549887377, -22.399013687439844], [-41.79640834414098, -22.39746945283456], [-41.794361162132766, -22.397501258095836], [-41.79337112483652, -22.39907729726284], [-41.791323938359, -22.399109063489366], [-41.79033389147831, -22.400685055218464], [-41.79139103597544, -22.402229273024005], [-41.79040098441175, -22.403805209612727], [-41.79145813424848, -22.40534937298104], [-41.79046807800173, -22.40692525442305], [-41.791525233178135, -22.40846936334772], [-41.790535172248276, -22.41004518963672], [-41.791592332764395, -22.41158924411131], [-41.79363955933227, -22.411557480700527], [-41.794696730308644, -22.41310148912312], [-41.79674396242856, -22.413069687358433], [-41.79780114385908, -22.41461364972166], [-41.79984838151905, -22.41458180959859], [-41.80090557339761, -22.41612572589508], [-41.80295281658562, -22.416093847409165], [-41.80394285787163, -22.414518051937023], [-41.80288566089072, -22.412974127242197]]]}, "properties": {"super_cluster_id": 1, "micro_cluster_ids": [1, 2, 5], "bairro_principal": "Glória", "bairros": ["Glória", "Bosque Azul", "Cavaleiros", "Nova Holanda", "Granja dos Cavaleiros", "Morro de São Jorge"], "n_micro_clusters": 3, "n_cells_total": 26, "score_medio": 91.66, "score_max": 100.0, "inherited_share_medio": 0.399, "direct_share_medio": 0.601, "actionability_medio": 77.8, "raio_m": 1060.0, "principais_sinais": "diversidade de usos + proximidade a âncoras + alimentação + mercado/conveniência", "justificativa": "3 micro-cluster(s) unidos, 26 células, raio ~1060m, score médio 92 (máx 100); direct share 60%. Sinais: diversidade de usos + proximidade a âncoras + alimentação + mercado/conveniência.", "prioridade_visita": "alta"}}, {"type": "Feature", "geometry": {"type": "Polygon", "coordinates": [[[-41.802549892273106, -22.397373882320867], [-41.80353990546533, -22.395797756003105], [-41.805587084018, -22.395765834351927], [-41.80657708760365, -22.394189660620327], [-41.805519917562386, -22.392645400834922], [-41.80650991646609, -22.39106917198991], [-41.80545275176397, -22.389524857777864], [-41.80340559325373, -22.389556780800802], [-41.8023484389877, -22.38801242055763], [-41.80030128599537, -22.388044305255246], [-41.799244142171545, -22.38649989898833], [-41.79719699470912, -22.386531745365097], [-41.796139861333614, -22.384987293081817], [-41.79409271941309, -22.385019101142213], [-41.79310270084761, -22.386595360785908], [-41.791055554458985, -22.386627129829805], [-41.78999843665914, -22.385082639934577], [-41.78795129583619, -22.3851143706664], [-41.7869612627921, -22.38669059058424], [-41.78491411752431, -22.386722282294635], [-41.78392407490785, -22.38829845478684], [-41.78498118244721, -22.389842927880203], [-41.78399113514751, -22.391419045252857], [-41.78504824802639, -22.392963463939477], [-41.78405819604342, -22.39453952618627], [-41.785115314261866, -22.396083890459725], [-41.78412525759557, -22.39765989757432], [-41.785182381153646, -22.399204207428177], [-41.78722956651233, -22.3991725185721], [-41.788286700543, -22.400716782405482], [-41.79033389147831, -22.400685055218464], [-41.791323938359, -22.399109063489366], [-41.79337112483652, -22.39907729726284], [-41.794361162132766, -22.397501258095836], [-41.79640834414098, -22.39746945283456], [-41.79746549887377, -22.399013687439844], [-41.799512686423064, -22.398981843843515], [-41.800502709216374, -22.397405764946992], [-41.802549892273106, -22.397373882320867]]]}, "properties": {"super_cluster_id": 2, "micro_cluster_ids": [3, 4, 9], "bairro_principal": "Visconde de Araújo", "bairros": ["Visconde de Araújo", "Granja dos Cavaleiros", "Aroeira", "Morro de São Jorge", "Glória"], "n_micro_clusters": 3, "n_cells_total": 26, "score_medio": 83.12, "score_max": 99.58, "inherited_share_medio": 0.23, "direct_share_medio": 0.77, "actionability_medio": 83.11, "raio_m": 1088.0, "principais_sinais": "proximidade a âncoras + diversidade de usos + comércio + conectividade viária", "justificativa": "3 micro-cluster(s) unidos, 26 células, raio ~1088m, score médio 83 (máx 100); direct share 77%. Sinais: proximidade a âncoras + diversidade de usos + comércio + conectividade viária.", "prioridade_visita": "alta"}}, {"type": "Feature", "geometry": {"type": "Polygon", "coordinates": [[[-41.790535172248276, -22.41004518963672], [-41.791525233178135, -22.40846936334772], [-41.79046807800173, -22.40692525442305], [-41.79145813424848, -22.40534937298104], [-41.79040098441175, -22.403805209612727], [-41.79139103597544, -22.402229273024005], [-41.79033389147831, -22.400685055218464], [-41.788286700543, -22.400716782405482], [-41.78722956651233, -22.3991725185721], [-41.785182381153646, -22.399204207428177], [-41.784192319803985, -22.40078015940426], [-41.78524944870173, -22.40232441483208], [-41.784259382668665, -22.403900311663314], [-41.78531651690613, -22.40544451265869], [-41.78432644618962, -22.407020354338766], [-41.785383585766866, -22.40856450089527], [-41.7874308011947, -22.408532814178855], [-41.788487951244434, -22.410076914698088], [-41.790535172248276, -22.41004518963672]]]}, "properties": {"super_cluster_id": 3, "micro_cluster_ids": [8], "bairro_principal": "Glória", "bairros": ["Glória", "Cavaleiros"], "n_micro_clusters": 1, "n_cells_total": 6, "score_medio": 81.7, "score_max": 94.75, "inherited_share_medio": 0.628, "direct_share_medio": 0.372, "actionability_medio": 41.62, "raio_m": 462.0, "principais_sinais": "diversidade de usos + alimentação + proximidade a âncoras + comércio", "justificativa": "1 micro-cluster(s) unidos, 6 células, raio ~462m, score médio 82 (máx 95); direct share 37%. Sinais: diversidade de usos + alimentação + proximidade a âncoras + comércio.", "prioridade_visita": "baixa"}}, {"type": "Feature", "geometry": {"type": "Polygon", "coordinates": [[[-41.814900210086215, -22.40030231724618], [-41.81595741673809, -22.401846384427355], [-41.818004617240895, -22.401814309392773], [-41.81899460107006, -22.4002381665099], [-41.81793738934567, -22.39869409094504], [-41.81892736849361, -22.397117892945047], [-41.81787016210826, -22.395573762931154], [-41.815822981646235, -22.395605839300153], [-41.81476578567252, -22.394061663225663], [-41.81271861068045, -22.39409370125144], [-41.81166142512449, -22.392549479123726], [-41.80961425561437, -22.392581478810744], [-41.808557080482274, -22.39103721063717], [-41.80650991646609, -22.39106917198991], [-41.805519917562386, -22.392645400834922], [-41.80657708760365, -22.394189660620327], [-41.805587084018, -22.395765834351927], [-41.806644259398475, -22.397310039704234], [-41.80565425113086, -22.398886158316106], [-41.80671143185057, -22.400430309228923], [-41.80875862592991, -22.40039834991965], [-41.80981581707952, -22.401942454777192], [-41.811863016652175, -22.401910457119637], [-41.81285301505295, -22.4003343539282], [-41.814900210086215, -22.40030231724618]]]}, "properties": {"super_cluster_id": 4, "micro_cluster_ids": [6], "bairro_principal": "Nova Holanda", "bairros": ["Nova Holanda"], "n_micro_clusters": 1, "n_cells_total": 10, "score_medio": 78.24, "score_max": 88.71, "inherited_share_medio": 0.242, "direct_share_medio": 0.758, "actionability_medio": 76.92, "raio_m": 650.0, "principais_sinais": "proximidade a âncoras + diversidade de usos + escritórios + mercado/conveniência", "justificativa": "1 micro-cluster(s) unidos, 10 células, raio ~650m, score médio 78 (máx 89); direct share 76%. Sinais: proximidade a âncoras + diversidade de usos + escritórios + mercado/conveniência.", "prioridade_visita": "alta"}}, {"type": "Feature", "geometry": {"type": "Polygon", "coordinates": [[[-41.812199015682204, -22.417509895370713], [-41.81318903749173, -22.41593406788207], [-41.81213181456109, -22.41439022695417], [-41.8131218316888, -22.412814344312324], [-41.81206461409756, -22.411270448908052], [-41.813054626543455, -22.40969451111934], [-41.811997414291554, -22.4081505612451], [-41.81298742205571, -22.40657456831582], [-41.81503463713054, -22.40654253297714], [-41.81602463527057, -22.404966492629114], [-41.818071845793895, -22.404934418261586], [-41.819061834304335, -22.403358330502158], [-41.818004617240895, -22.401814309392773], [-41.81595741673809, -22.401846384427355], [-41.814900210086215, -22.40030231724618], [-41.81285301505295, -22.4003343539282], [-41.811863016652175, -22.401910457119637], [-41.80981581707952, -22.401942454777192], [-41.80882580906053, -22.403518510553297], [-41.80988300554941, -22.405062560959312], [-41.80889299284854, -22.406638561602108], [-41.80684577872664, -22.40667051954958], [-41.805855756412846, -22.408246472764294], [-41.80380853777421, -22.408278391673193], [-41.80281850585296, -22.409854297452483], [-41.80387569749433, -22.41139827661333], [-41.80288566089072, -22.412974127242197], [-41.80394285787163, -22.414518051937023], [-41.80295281658562, -22.416093847409165], [-41.80401001890612, -22.417637717631536], [-41.80605726761019, -22.417605800778297], [-41.807114480366494, -22.41914962491923], [-41.809161734574644, -22.419117669694185], [-41.810151766003465, -22.41754188964782], [-41.812199015682204, -22.417509895370713]]]}, "properties": {"super_cluster_id": 5, "micro_cluster_ids": [7, 10], "bairro_principal": "Bosque Azul", "bairros": ["Bosque Azul", "Virgem Santa", "Nova Holanda"], "n_micro_clusters": 2, "n_cells_total": 15, "score_medio": 71.51, "score_max": 84.59, "inherited_share_medio": 0.267, "direct_share_medio": 0.733, "actionability_medio": 66.16, "raio_m": 1042.0, "principais_sinais": "proximidade a âncoras + diversidade de usos + transporte + mercado/conveniência", "justificativa": "2 micro-cluster(s) unidos, 15 células, raio ~1042m, score médio 72 (máx 85); direct share 73%. Sinais: proximidade a âncoras + diversidade de usos + transporte + mercado/conveniência.", "prioridade_visita": "média"}}, {"type": "Feature", "geometry": {"type": "Polygon", "coordinates": [[[-41.824280738411176, -22.407958041647273], [-41.82527071700776, -22.40638196933143], [-41.824213479139516, -22.40483804038769], [-41.82520345305518, -22.40326191294655], [-41.82414622052594, -22.401717929536165], [-41.82209901914005, -22.401750081947096], [-41.82104179701018, -22.400206052455797], [-41.81899460107006, -22.4002381665099], [-41.818004617240895, -22.401814309392773], [-41.819061834304335, -22.403358330502158], [-41.818071845793895, -22.404934418261586], [-41.81912906819647, -22.406478384909082], [-41.82117628417715, -22.40644627217987], [-41.82223351698514, -22.407990192742652], [-41.824280738411176, -22.407958041647273]]]}, "properties": {"super_cluster_id": 6, "micro_cluster_ids": [11], "bairro_principal": "Bosque Azul", "bairros": ["Bosque Azul", "Nova Holanda"], "n_micro_clusters": 1, "n_cells_total": 4, "score_medio": 64.4, "score_max": 68.64, "inherited_share_medio": 0.066, "direct_share_medio": 0.934, "actionability_medio": 64.4, "raio_m": 305.0, "principais_sinais": "proximidade a âncoras + diversidade de usos + educação + transporte", "justificativa": "1 micro-cluster(s) unidos, 4 células, raio ~305m, score médio 64 (máx 69); direct share 93%. Sinais: proximidade a âncoras + diversidade de usos + educação + transporte.", "prioridade_visita": "média"}}, {"type": "Feature", "geometry": {"type": "Polygon", "coordinates": [[[-41.812199015682204, -22.417509895370713], [-41.81325624395228, -22.41905368181582], [-41.81530349911132, -22.41902164916266], [-41.81629351597775, -22.41744582939319], [-41.8183407665841, -22.417413757692913], [-41.819330773820056, -22.41583789049049], [-41.81827353539981, -22.414294087267148], [-41.81622629481435, -22.41432615963408], [-41.81516906680554, -22.412782310316608], [-41.8131218316888, -22.412814344312324], [-41.81213181456109, -22.41439022695417], [-41.81318903749173, -22.41593406788207], [-41.812199015682204, -22.417509895370713]]]}, "properties": {"super_cluster_id": 7, "micro_cluster_ids": [12], "bairro_principal": "Virgem Santa", "bairros": ["Virgem Santa"], "n_micro_clusters": 1, "n_cells_total": 3, "score_medio": 59.13, "score_max": 62.23, "inherited_share_medio": 0.155, "direct_share_medio": 0.845, "actionability_medio": 58.13, "raio_m": 210.0, "principais_sinais": "proximidade a âncoras + diversidade de usos + educação + academia", "justificativa": "1 micro-cluster(s) unidos, 3 células, raio ~210m, score médio 59 (máx 62); direct share 84%. Sinais: proximidade a âncoras + diversidade de usos + educação + academia.", "prioridade_visita": "baixa"}}]}